KUIPER-00252            
1 67157U 25301AA  26017.52115615  .00025756  00000+0  75089-3 0  9995
2 67157  51.8662 312.7911 0009836 219.8254 140.2011 15.35155936  5868
KUIPER-00261            
1 67158U 25301AB  26017.30097703  .00036825  00000+0  10264-2 0  9991
2 67158  51.8708 313.5812 0006734 193.1772 166.9040 15.36401871  5839
KUIPER-00265            
1 67159U 25301AC  26017.58336806 -.02028752  00000+0 -13460+0 0  9994
2 67159  51.8849 313.3101 0002283 199.3940 142.1836 15.10691089  5906
